{"fetched_at":"2026-07-08T17:59:48.661Z","source":"https://celestrak.org/NORAD/elements/gp.php?NAME=HAWK&FORMAT=JSON","constellation":"hawkeye-360","records":[{"OBJECT_NAME":"HAWK-7B","OBJECT_ID":"2023-054R","EPOCH":"2026-07-08T09:37:32.276064","CLASSIFICATION_TYPE":"U","MEAN_MOTION":15.27588292,"ECCENTRICITY":0.0002043,"INCLINATION":97.2701,"RA_OF_ASC_NODE":74.4704,"ARG_OF_PERICENTER":28.9504,"MEAN_ANOMALY":331.1849,"EPHEMERIS_TYPE":0,"NORAD_CAT_ID":56193,"ELEMENT_SET_NO":999,"REV_AT_EPOCH":18026,"BSTAR":0.00014098,"MEAN_MOTION_DOT":0.00003731,"MEAN_MOTION_DDOT":0},{"OBJECT_NAME":"HAWK-7C","OBJECT_ID":"2023-054Y","EPOCH":"2026-07-08T01:45:44.547264","CLASSIFICATION_TYPE":"U","MEAN_MOTION":15.27583071,"ECCENTRICITY":0.000175,"INCLINATION":97.2678,"RA_OF_ASC_NODE":74.9131,"ARG_OF_PERICENTER":16.0683,"MEAN_ANOMALY":344.0612,"EPHEMERIS_TYPE":0,"NORAD_CAT_ID":56200,"ELEMENT_SET_NO":999,"REV_AT_EPOCH":18021,"BSTAR":0.00011989,"MEAN_MOTION_DOT":0.00003161,"MEAN_MOTION_DDOT":0},{"OBJECT_NAME":"HAWK-8A","OBJECT_ID":"2024-066B","EPOCH":"2026-07-08T10:26:25.378080","CLASSIFICATION_TYPE":"U","MEAN_MOTION":14.99273663,"ECCENTRICITY":0.0002445,"INCLINATION":45.5942,"RA_OF_ASC_NODE":166.7747,"ARG_OF_PERICENTER":190.4083,"MEAN_ANOMALY":169.6748,"EPHEMERIS_TYPE":0,"NORAD_CAT_ID":59443,"ELEMENT_SET_NO":999,"REV_AT_EPOCH":12302,"BSTAR":0.000094458,"MEAN_MOTION_DOT":0.00000939,"MEAN_MOTION_DDOT":0},{"OBJECT_NAME":"HAWK-8B","OBJECT_ID":"2024-066D","EPOCH":"2026-07-08T10:27:04.587264","CLASSIFICATION_TYPE":"U","MEAN_MOTION":14.99279077,"ECCENTRICITY":0.0002638,"INCLINATION":45.6155,"RA_OF_ASC_NODE":168.7389,"ARG_OF_PERICENTER":196.9807,"MEAN_ANOMALY":163.0986,"EPHEMERIS_TYPE":0,"NORAD_CAT_ID":59445,"ELEMENT_SET_NO":999,"REV_AT_EPOCH":12301,"BSTAR":0.00039791,"MEAN_MOTION_DOT":0.00004699,"MEAN_MOTION_DDOT":0},{"OBJECT_NAME":"HAWK-9A","OBJECT_ID":"2024-066E","EPOCH":"2026-07-08T09:23:32.697024","CLASSIFICATION_TYPE":"U","MEAN_MOTION":14.99201228,"ECCENTRICITY":0.0002126,"INCLINATION":45.6085,"RA_OF_ASC_NODE":167.6319,"ARG_OF_PERICENTER":172.468,"MEAN_ANOMALY":187.6233,"EPHEMERIS_TYPE":0,"NORAD_CAT_ID":59446,"ELEMENT_SET_NO":999,"REV_AT_EPOCH":12301,"BSTAR":0.00010452,"MEAN_MOTION_DOT":0.00001061,"MEAN_MOTION_DDOT":0},{"OBJECT_NAME":"HAWK-9C","OBJECT_ID":"2024-066G","EPOCH":"2026-07-08T07:47:59.002080","CLASSIFICATION_TYPE":"U","MEAN_MOTION":14.99204159,"ECCENTRICITY":0.0001963,"INCLINATION":45.6046,"RA_OF_ASC_NODE":167.0761,"ARG_OF_PERICENTER":152.383,"MEAN_ANOMALY":207.7156,"EPHEMERIS_TYPE":0,"NORAD_CAT_ID":59448,"ELEMENT_SET_NO":999,"REV_AT_EPOCH":12300,"BSTAR":0.00010844,"MEAN_MOTION_DOT":0.0000111,"MEAN_MOTION_DDOT":0},{"OBJECT_NAME":"HAWK-8C","OBJECT_ID":"2024-066H","EPOCH":"2026-07-07T10:27:04.451616","CLASSIFICATION_TYPE":"U","MEAN_MOTION":14.99276386,"ECCENTRICITY":0.00022222,"INCLINATION":45.6051,"RA_OF_ASC_NODE":172.9334,"ARG_OF_PERICENTER":197.7538,"MEAN_ANOMALY":162.3266,"EPHEMERIS_TYPE":0,"NORAD_CAT_ID":59449,"ELEMENT_SET_NO":999,"REV_AT_EPOCH":12286,"BSTAR":0.00013229917,"MEAN_MOTION_DOT":0.00001408,"MEAN_MOTION_DDOT":0},{"OBJECT_NAME":"HAWK-9B","OBJECT_ID":"2024-066J","EPOCH":"2026-07-08T09:23:58.102080","CLASSIFICATION_TYPE":"U","MEAN_MOTION":14.99202295,"ECCENTRICITY":0.0002159,"INCLINATION":45.6125,"RA_OF_ASC_NODE":168.5653,"ARG_OF_PERICENTER":144.0559,"MEAN_ANOMALY":216.0468,"EPHEMERIS_TYPE":0,"NORAD_CAT_ID":59450,"ELEMENT_SET_NO":999,"REV_AT_EPOCH":12301,"BSTAR":0.00010744,"MEAN_MOTION_DOT":0.00001097,"MEAN_MOTION_DDOT":0},{"OBJECT_NAME":"HAWK-10A","OBJECT_ID":"2024-149CA","EPOCH":"2026-07-07T18:18:57.398976","CLASSIFICATION_TYPE":"U","MEAN_MOTION":14.96579003,"ECCENTRICITY":0.000373,"INCLINATION":97.6892,"RA_OF_ASC_NODE":264.321,"ARG_OF_PERICENTER":31.0488,"MEAN_ANOMALY":329.0954,"EPHEMERIS_TYPE":0,"NORAD_CAT_ID":60540,"ELEMENT_SET_NO":999,"REV_AT_EPOCH":10306,"BSTAR":0.00016561,"MEAN_MOTION_DOT":0.00001828,"MEAN_MOTION_DDOT":0},{"OBJECT_NAME":"HAWK-10B","OBJECT_ID":"2024-149CF","EPOCH":"2026-07-08T03:56:25.812096","CLASSIFICATION_TYPE":"U","MEAN_MOTION":14.96579711,"ECCENTRICITY":0.0006083,"INCLINATION":97.6812,"RA_OF_ASC_NODE":264.0491,"ARG_OF_PERICENTER":38.8899,"MEAN_ANOMALY":321.276,"EPHEMERIS_TYPE":0,"NORAD_CAT_ID":60545,"ELEMENT_SET_NO":999,"REV_AT_EPOCH":10312,"BSTAR":0.00014801,"MEAN_MOTION_DOT":0.00001628,"MEAN_MOTION_DDOT":0},{"OBJECT_NAME":"HAWK-10C","OBJECT_ID":"2024-149DM","EPOCH":"2026-07-07T18:19:13.776096","CLASSIFICATION_TYPE":"U","MEAN_MOTION":14.96578612,"ECCENTRICITY":0.0003306,"INCLINATION":97.6731,"RA_OF_ASC_NODE":262.9734,"ARG_OF_PERICENTER":21.1702,"MEAN_ANOMALY":338.9656,"EPHEMERIS_TYPE":0,"NORAD_CAT_ID":60575,"ELEMENT_SET_NO":999,"REV_AT_EPOCH":10306,"BSTAR":0.0001545,"MEAN_MOTION_DOT":0.00001702,"MEAN_MOTION_DDOT":0},{"OBJECT_NAME":"HAWK-11B","OBJECT_ID":"2024-247C","EPOCH":"2026-07-08T07:37:30.244224","CLASSIFICATION_TYPE":"U","MEAN_MOTION":15.30602568,"ECCENTRICITY":0.0003978,"INCLINATION":45.0135,"RA_OF_ASC_NODE":173.8893,"ARG_OF_PERICENTER":342.8414,"MEAN_ANOMALY":17.2335,"EPHEMERIS_TYPE":0,"NORAD_CAT_ID":62379,"ELEMENT_SET_NO":999,"REV_AT_EPOCH":8624,"BSTAR":0.00014767,"MEAN_MOTION_DOT":0.00004149,"MEAN_MOTION_DDOT":0},{"OBJECT_NAME":"HAWK-11C","OBJECT_ID":"2024-247E","EPOCH":"2026-07-08T07:36:50.278176","CLASSIFICATION_TYPE":"U","MEAN_MOTION":15.30599883,"ECCENTRICITY":0.0004883,"INCLINATION":45.0016,"RA_OF_ASC_NODE":173.23,"ARG_OF_PERICENTER":333.0702,"MEAN_ANOMALY":26.9928,"EPHEMERIS_TYPE":0,"NORAD_CAT_ID":62381,"ELEMENT_SET_NO":999,"REV_AT_EPOCH":8624,"BSTAR":0.00013886,"MEAN_MOTION_DOT":0.00003882,"MEAN_MOTION_DDOT":0},{"OBJECT_NAME":"HAWK-11A","OBJECT_ID":"2024-247F","EPOCH":"2026-07-08T07:36:57.443328","CLASSIFICATION_TYPE":"U","MEAN_MOTION":15.30600921,"ECCENTRICITY":0.0004404,"INCLINATION":44.9918,"RA_OF_ASC_NODE":172.5648,"ARG_OF_PERICENTER":332.4804,"MEAN_ANOMALY":27.5846,"EPHEMERIS_TYPE":0,"NORAD_CAT_ID":62382,"ELEMENT_SET_NO":999,"REV_AT_EPOCH":8624,"BSTAR":0.00014016,"MEAN_MOTION_DOT":0.00003922,"MEAN_MOTION_DDOT":0},{"OBJECT_NAME":"HAWK-12C","OBJECT_ID":"2025-138A","EPOCH":"2026-07-08T09:30:06.443424","CLASSIFICATION_TYPE":"U","MEAN_MOTION":15.1837033,"ECCENTRICITY":0.0015697,"INCLINATION":97.4352,"RA_OF_ASC_NODE":191.4812,"ARG_OF_PERICENTER":72.6116,"MEAN_ANOMALY":287.6833,"EPHEMERIS_TYPE":0,"NORAD_CAT_ID":64621,"ELEMENT_SET_NO":999,"REV_AT_EPOCH":5708,"BSTAR":0.00012123,"MEAN_MOTION_DOT":0.0000243,"MEAN_MOTION_DDOT":0},{"OBJECT_NAME":"HAWK-12B","OBJECT_ID":"2025-138B","EPOCH":"2026-07-08T11:05:15.313056","CLASSIFICATION_TYPE":"U","MEAN_MOTION":15.18370916,"ECCENTRICITY":0.0014613,"INCLINATION":97.4474,"RA_OF_ASC_NODE":192.2286,"ARG_OF_PERICENTER":68.2571,"MEAN_ANOMALY":292.0217,"EPHEMERIS_TYPE":0,"NORAD_CAT_ID":64622,"ELEMENT_SET_NO":999,"REV_AT_EPOCH":5709,"BSTAR":0.00013209,"MEAN_MOTION_DOT":0.00002653,"MEAN_MOTION_DDOT":0}]}
