HAWK-7B                 
1 56193U 23054R   26189.40106801  .00003731  00000+0  14098-3 0  9992
2 56193  97.2701  74.4704 0002043  28.9504 331.1849 15.27588292180260
HAWK-7C                 
1 56200U 23054Y   26189.07343226  .00003161  00000+0  11989-3 0  9991
2 56200  97.2678  74.9131 0001750  16.0683 344.0612 15.27583071180217
HAWK-8A                 
1 59443U 24066B   26189.43501595  .00000939  00000+0  94458-4 0  9995
2 59443  45.5942 166.7747 0002445 190.4083 169.6748 14.99273663123023
HAWK-8B                 
1 59445U 24066D   26189.43546976  .00004699  00000+0  39791-3 0  9994
2 59445  45.6155 168.7389 0002638 196.9807 163.0986 14.99279077123011
HAWK-9A                 
1 59446U 24066E   26189.39135066  .00001061  00000+0  10452-3 0  9997
2 59446  45.6085 167.6319 0002126 172.4680 187.6233 14.99201228123015
HAWK-9C                 
1 59448U 24066G   26189.32498845  .00001110  00000+0  10844-3 0  9999
2 59448  45.6046 167.0761 0001963 152.3830 207.7156 14.99204159123004
HAWK-8C                 
1 59449U 24066H   26188.43546819  .00001408  00000+0  13230-3 0  9998
2 59449  45.6051 172.9334 0002222 197.7538 162.3266 14.99276386122861
HAWK-9B                 
1 59450U 24066J   26189.39164470  .00001097  00000+0  10744-3 0  9996
2 59450  45.6125 168.5653 0002159 144.0559 216.0468 14.99202295123014
HAWK-10A                
1 60540U 24149CA  26188.76316434  .00001828  00000+0  16561-3 0  9994
2 60540  97.6892 264.3210 0003730  31.0488 329.0954 14.96579003103069
HAWK-10B                
1 60545U 24149CF  26189.16418764  .00001628  00000+0  14801-3 0  9996
2 60545  97.6812 264.0491 0006083  38.8899 321.2760 14.96579711103121
HAWK-10C                
1 60575U 24149DM  26188.76335389  .00001702  00000+0  15450-3 0  9999
2 60575  97.6731 262.9734 0003306  21.1702 338.9656 14.96578612103065
HAWK-11B                
1 62379U 24247C   26189.31771116  .00004149  00000+0  14767-3 0  9994
2 62379  45.0135 173.8893 0003978 342.8414  17.2335 15.30602568 86246
HAWK-11C                
1 62381U 24247E   26189.31724859  .00003882  00000+0  13886-3 0  9993
2 62381  45.0016 173.2300 0004883 333.0702  26.9928 15.30599883 86242
HAWK-11A                
1 62382U 24247F   26189.31733152  .00003922  00000+0  14016-3 0  9991
2 62382  44.9918 172.5648 0004404 332.4804  27.5846 15.30600921 86246
HAWK-12C                
1 64621U 25138A   26189.39590791  .00002430  00000+0  12123-3 0  9997
2 64621  97.4352 191.4812 0015697  72.6116 287.6833 15.18370330 57086
HAWK-12B                
1 64622U 25138B   26189.46198279  .00002653  00000+0  13209-3 0  9994
2 64622  97.4474 192.2286 0014613  68.2571 292.0217 15.18370916 57096
